STARLINK-1559           
1 46077U 20055BC  26068.23360559  .00042685  00000+0  14779-2 0  9995
2 46077  53.0254  76.0659 0004229  33.9710 326.1559 15.29461733309518
STARLINK-35748          
1 66206U 25244A   26068.71857836  .00017522  00000+0  60300-3 0  9992
2 66206  53.1589 229.8013 0001993 158.7664 201.3420 15.30162555 21667
